[{"OBJECT_NAME":"INTELSAT 20 (IS-20)","OBJECT_ID":"2012-043A","EPOCH":"2026-03-29T01:08:51.768960","MEAN_MOTION":1.00270782,"ECCENTRICITY":0.0002663,"INCLINATION":0.017,"RA_OF_ASC_NODE":116.7827,"ARG_OF_PERICENTER":44.8285,"MEAN_ANOMALY":110.5372,"EPHEMERIS_TYPE":0,"CLASSIFICATION_TYPE":"U","NORAD_CAT_ID":38740,"ELEMENT_SET_NO":999,"REV_AT_EPOCH":4994,"BSTAR":0,"MEAN_MOTION_DOT":-4.3e-7,"MEAN_MOTION_DDOT":0},{"OBJECT_NAME":"HYLAS 2","OBJECT_ID":"2012-043B","EPOCH":"2026-03-29T04:07:53.499936","MEAN_MOTION":1.0027196,"ECCENTRICITY":0.000252,"INCLINATION":2.2214,"RA_OF_ASC_NODE":82.0308,"ARG_OF_PERICENTER":305.6613,"MEAN_ANOMALY":148.3061,"EPHEMERIS_TYPE":0,"CLASSIFICATION_TYPE":"U","NORAD_CAT_ID":38741,"ELEMENT_SET_NO":999,"REV_AT_EPOCH":4997,"BSTAR":0,"MEAN_MOTION_DOT":-2.75e-6,"MEAN_MOTION_DDOT":0},{"OBJECT_NAME":"INTELSAT 21 (IS-21)","OBJECT_ID":"2012-045A","EPOCH":"2026-03-29T02:29:20.676192","MEAN_MOTION":1.00272065,"ECCENTRICITY":0.0001661,"INCLINATION":0.0212,"RA_OF_ASC_NODE":249.1525,"ARG_OF_PERICENTER":115.7382,"MEAN_ANOMALY":160.9445,"EPHEMERIS_TYPE":0,"CLASSIFICATION_TYPE":"U","NORAD_CAT_ID":38749,"ELEMENT_SET_NO":999,"REV_AT_EPOCH":4972,"BSTAR":0,"MEAN_MOTION_DOT":-3.04e-6,"MEAN_MOTION_DDOT":0},{"OBJECT_NAME":"ASTRA 2F","OBJECT_ID":"2012-051A","EPOCH":"2026-03-29T02:53:53.098944","MEAN_MOTION":1.00272482,"ECCENTRICITY":0.0001853,"INCLINATION":0.056,"RA_OF_ASC_NODE":251.9381,"ARG_OF_PERICENTER":31.6721,"MEAN_ANOMALY":334.5544,"EPHEMERIS_TYPE":0,"CLASSIFICATION_TYPE":"U","NORAD_CAT_ID":38778,"ELEMENT_SET_NO":999,"REV_AT_EPOCH":4033,"BSTAR":0,"MEAN_MOTION_DOT":1.3e-6,"MEAN_MOTION_DDOT":0},{"OBJECT_NAME":"GSAT-10","OBJECT_ID":"2012-051B","EPOCH":"2026-03-29T01:26:56.660928","MEAN_MOTION":1.00270484,"ECCENTRICITY":0.0005598,"INCLINATION":0.0106,"RA_OF_ASC_NODE":184.2302,"ARG_OF_PERICENTER":256.3277,"MEAN_ANOMALY":210.6285,"EPHEMERIS_TYPE":0,"CLASSIFICATION_TYPE":"U","NORAD_CAT_ID":38779,"ELEMENT_SET_NO":999,"REV_AT_EPOCH":4929,"BSTAR":0,"MEAN_MOTION_DOT":-1.84e-6,"MEAN_MOTION_DDOT":0},{"OBJECT_NAME":"INTELSAT 23 (IS-23)","OBJECT_ID":"2012-057A","EPOCH":"2026-03-29T00:48:07.882848","MEAN_MOTION":1.002686,"ECCENTRICITY":6.8e-5,"INCLINATION":0.0212,"RA_OF_ASC_NODE":245.3924,"ARG_OF_PERICENTER":131.7308,"MEAN_ANOMALY":128.3174,"EPHEMERIS_TYPE":0,"CLASSIFICATION_TYPE":"U","NORAD_CAT_ID":38867,"ELEMENT_SET_NO":999,"REV_AT_EPOCH":4915,"BSTAR":0,"MEAN_MOTION_DOT":-3.04e-6,"MEAN_MOTION_DDOT":0},{"OBJECT_NAME":"BEIDOU-2 G6","OBJECT_ID":"2012-059A","EPOCH":"2026-03-29T01:27:11.638368","MEAN_MOTION":1.00272154,"ECCENTRICITY":0.0010529,"INCLINATION":4.2191,"RA_OF_ASC_NODE":74.3618,"ARG_OF_PERICENTER":308.0057,"MEAN_ANOMALY":269.9402,"EPHEMERIS_TYPE":0,"CLASSIFICATION_TYPE":"U","NORAD_CAT_ID":38953,"ELEMENT_SET_NO":999,"REV_AT_EPOCH":4910,"BSTAR":0,"MEAN_MOTION_DOT":-1.92e-6,"MEAN_MOTION_DDOT":0},{"OBJECT_NAME":"LUCH-5B","OBJECT_ID":"2012-061A","EPOCH":"2026-03-29T04:23:51.968832","MEAN_MOTION":1.0027334,"ECCENTRICITY":0.0003185,"INCLINATION":10.3126,"RA_OF_ASC_NODE":50.6584,"ARG_OF_PERICENTER":223.7539,"MEAN_ANOMALY":321.7844,"EPHEMERIS_TYPE":0,"CLASSIFICATION_TYPE":"U","NORAD_CAT_ID":38977,"ELEMENT_SET_NO":999,"REV_AT_EPOCH":4880,"BSTAR":0,"MEAN_MOTION_DOT":-1.49e-6,"MEAN_MOTION_DDOT":0},{"OBJECT_NAME":"YAMAL 300K","OBJECT_ID":"2012-061B","EPOCH":"2026-03-28T01:57:49.145184","MEAN_MOTION":1.00271722,"ECCENTRICITY":8.864e-5,"INCLINATION":0.0098,"RA_OF_ASC_NODE":228.2695,"ARG_OF_PERICENTER":5.8458,"MEAN_ANOMALY":163.7716,"EPHEMERIS_TYPE":0,"CLASSIFICATION_TYPE":"U","NORAD_CAT_ID":38978,"ELEMENT_SET_NO":999,"REV_AT_EPOCH":4881,"BSTAR":0,"MEAN_MOTION_DOT":5.2e-7,"MEAN_MOTION_DDOT":0},{"OBJECT_NAME":"STAR ONE C3","OBJECT_ID":"2012-062A","EPOCH":"2026-03-29T04:07:08.571936","MEAN_MOTION":1.00268201,"ECCENTRICITY":0.0002493,"INCLINATION":0.0179,"RA_OF_ASC_NODE":184.106,"ARG_OF_PERICENTER":202.0906,"MEAN_ANOMALY":147.1761,"EPHEMERIS_TYPE":0,"CLASSIFICATION_TYPE":"U","NORAD_CAT_ID":38991,"ELEMENT_SET_NO":999,"REV_AT_EPOCH":4896,"BSTAR":0,"MEAN_MOTION_DOT":0,"MEAN_MOTION_DDOT":0},{"OBJECT_NAME":"EUTELSAT 21B","OBJECT_ID":"2012-062B","EPOCH":"2026-03-29T01:09:20.848608","MEAN_MOTION":1.00270306,"ECCENTRICITY":0.0002922,"INCLINATION":0.0692,"RA_OF_ASC_NODE":356.9459,"ARG_OF_PERICENTER":6.1703,"MEAN_ANOMALY":222.2654,"EPHEMERIS_TYPE":0,"CLASSIFICATION_TYPE":"U","NORAD_CAT_ID":38992,"ELEMENT_SET_NO":999,"REV_AT_EPOCH":4902,"BSTAR":0,"MEAN_MOTION_DOT":1.1e-6,"MEAN_MOTION_DDOT":0},{"OBJECT_NAME":"ECHOSTAR 16","OBJECT_ID":"2012-065A","EPOCH":"2026-03-28T23:02:58.510752","MEAN_MOTION":1.0027141,"ECCENTRICITY":0.0001984,"INCLINATION":0.0185,"RA_OF_ASC_NODE":177.6714,"ARG_OF_PERICENTER":191.6545,"MEAN_ANOMALY":101.2787,"EPHEMERIS_TYPE":0,"CLASSIFICATION_TYPE":"U","NORAD_CAT_ID":39008,"ELEMENT_SET_NO":999,"REV_AT_EPOCH":4884,"BSTAR":0,"MEAN_MOTION_DOT":-3.01e-6,"MEAN_MOTION_DDOT":0},{"OBJECT_NAME":"ZHONGXING-12","OBJECT_ID":"2012-067A","EPOCH":"2026-03-27T03:15:48.336768","MEAN_MOTION":1.00271656,"ECCENTRICITY":0.0003388,"INCLINATION":0.0294,"RA_OF_ASC_NODE":108.7021,"ARG_OF_PERICENTER":250.5025,"MEAN_ANOMALY":321.8044,"EPHEMERIS_TYPE":0,"CLASSIFICATION_TYPE":"U","NORAD_CAT_ID":39017,"ELEMENT_SET_NO":999,"REV_AT_EPOCH":4868,"BSTAR":0,"MEAN_MOTION_DOT":-2.24e-6,"MEAN_MOTION_DDOT":0},{"OBJECT_NAME":"EUTELSAT 70B","OBJECT_ID":"2012-069A","EPOCH":"2026-03-29T03:05:59.438688","MEAN_MOTION":1.00272207,"ECCENTRICITY":0.0001807,"INCLINATION":0.0663,"RA_OF_ASC_NODE":8.4669,"ARG_OF_PERICENTER":1.4803,"MEAN_ANOMALY":293.5703,"EPHEMERIS_TYPE":0,"CLASSIFICATION_TYPE":"U","NORAD_CAT_ID":39020,"ELEMENT_SET_NO":999,"REV_AT_EPOCH":4870,"BSTAR":0,"MEAN_MOTION_DOT":-6.3e-7,"MEAN_MOTION_DDOT":0},{"OBJECT_NAME":"YAMAL 402","OBJECT_ID":"2012-070A","EPOCH":"2026-03-29T04:44:12.519168","MEAN_MOTION":1.00271476,"ECCENTRICITY":0.0003997,"INCLINATION":1.0594,"RA_OF_ASC_NODE":85.1579,"ARG_OF_PERICENTER":277.5047,"MEAN_ANOMALY":309.8763,"EPHEMERIS_TYPE":0,"CLASSIFICATION_TYPE":"U","NORAD_CAT_ID":39022,"ELEMENT_SET_NO":999,"REV_AT_EPOCH":4859,"BSTAR":0,"MEAN_MOTION_DOT":6.8e-7,"MEAN_MOTION_DDOT":0},{"OBJECT_NAME":"SKYNET 5D","OBJECT_ID":"2012-075A","EPOCH":"2026-03-29T03:00:52.430112","MEAN_MOTION":1.00272769,"ECCENTRICITY":0.0003664,"INCLINATION":0.0692,"RA_OF_ASC_NODE":6.429,"ARG_OF_PERICENTER":355.9991,"MEAN_ANOMALY":282.0433,"EPHEMERIS_TYPE":0,"CLASSIFICATION_TYPE":"U","NORAD_CAT_ID":39034,"ELEMENT_SET_NO":999,"REV_AT_EPOCH":4835,"BSTAR":0,"MEAN_MOTION_DOT":8.0e-7,"MEAN_MOTION_DDOT":0},{"OBJECT_NAME":"MEXSAT 3","OBJECT_ID":"2012-075B","EPOCH":"2026-03-29T03:18:38.644992","MEAN_MOTION":1.00272222,"ECCENTRICITY":9.87e-5,"INCLINATION":0.011,"RA_OF_ASC_NODE":178.2374,"ARG_OF_PERICENTER":176.4666,"MEAN_ANOMALY":126.7112,"EPHEMERIS_TYPE":0,"CLASSIFICATION_TYPE":"U","NORAD_CAT_ID":39035,"ELEMENT_SET_NO":999,"REV_AT_EPOCH":625,"BSTAR":0,"MEAN_MOTION_DOT":-4.5e-7,"MEAN_MOTION_DDOT":0}]
