INTELSAT 20 (IS-20)     
1 38740U 12043A   26088.04782140 -.00000043  00000+0  00000+0 0  9998
2 38740   0.0170 116.7827 0002663  44.8285 110.5372  1.00270782 49944
HYLAS 2                 
1 38741U 12043B   26088.17214699 -.00000275  00000+0  00000+0 0  9999
2 38741   2.2214  82.0308 0002520 305.6613 148.3061  1.00271960 49978
INTELSAT 21 (IS-21)     
1 38749U 12045A   26088.10371153 -.00000304  00000+0  00000+0 0  9994
2 38749   0.0212 249.1525 0001661 115.7382 160.9445  1.00272065 49721
ASTRA 2F                
1 38778U 12051A   26088.12075346  .00000130  00000+0  00000+0 0  9996
2 38778   0.0560 251.9381 0001853  31.6721 334.5544  1.00272482 40336
GSAT-10                 
1 38779U 12051B   26088.06037802 -.00000184  00000+0  00000+0 0  9995
2 38779   0.0106 184.2302 0005598 256.3277 210.6285  1.00270484 49296
INTELSAT 23 (IS-23)     
1 38867U 12057A   26088.03342457 -.00000304  00000+0  00000+0 0  9995
2 38867   0.0212 245.3924 0000680 131.7308 128.3174  1.00268600 49153
BEIDOU-2 G6             
1 38953U 12059A   26088.06055137 -.00000192  00000+0  00000+0 0  9997
2 38953   4.2191  74.3618 0010529 308.0057 269.9402  1.00272154 49104
LUCH-5B                 
1 38977U 12061A   26088.18324038 -.00000149  00000+0  00000+0 0  9990
2 38977  10.3126  50.6584 0003185 223.7539 321.7844  1.00273340 48804
YAMAL 300K              
1 38978U 12061B   26087.08181881  .00000052  00000+0  00000+0 0  9998
2 38978   0.0098 228.2695 0000886   5.8458 163.7716  1.00271722 48814
STAR ONE C3             
1 38991U 12062A   26088.17162699  .00000000  00000+0  00000+0 0  9994
2 38991   0.0179 184.1060 0002493 202.0906 147.1761  1.00268201 48960
EUTELSAT 21B            
1 38992U 12062B   26088.04815797  .00000110  00000+0  00000+0 0  9997
2 38992   0.0692 356.9459 0002922   6.1703 222.2654  1.00270306 49020
ECHOSTAR 16             
1 39008U 12065A   26087.96039943 -.00000301  00000+0  00000+0 0  9993
2 39008   0.0185 177.6714 0001984 191.6545 101.2787  1.00271410 48848
ZHONGXING-12            
1 39017U 12067A   26086.13597612 -.00000224  00000+0  00000+0 0  9999
2 39017   0.0294 108.7021 0003388 250.5025 321.8044  1.00271656 48683
EUTELSAT 70B            
1 39020U 12069A   26088.12916017 -.00000063  00000+0  00000+0 0  9991
2 39020   0.0663   8.4669 0001807   1.4803 293.5703  1.00272207 48705
YAMAL 402               
1 39022U 12070A   26088.19736712  .00000068  00000+0  00000+0 0  9998
2 39022   1.0594  85.1579 0003997 277.5047 309.8763  1.00271476 48592
SKYNET 5D               
1 39034U 12075A   26088.12560683  .00000080  00000+0  00000+0 0  9995
2 39034   0.0692   6.4290 0003664 355.9991 282.0433  1.00272769 48355
MEXSAT 3                
1 39035U 12075B   26088.13794728 -.00000045  00000+0  00000+0 0  9998
2 39035   0.0110 178.2374 0000987 176.4666 126.7112  1.00272222  6257
